{
  "type": "FeatureCollection",
  "features": [
    {
      "type": "Feature",
      "properties": {
        "norad_id": 35606,
        "name": "COSMOS 2251 DEB",
        "group": "cosmos-2251-debris",
        "lat": -54.71908693230219,
        "lon": -36.53795084399318,
        "alt_km": 1217.7178222689,
        "timestamp": "2025-12-27T05:29:39.600770+00:00",
        "meta_object_name": "COSMOS 2251 DEB",
        "meta_object_id": "1993-036AMZ",
        "meta_epoch": "2025-12-23T17:40:03.776448",
        "meta_mean_motion": 13.41219482,
        "meta_eccentricity": 0.0456715,
        "meta_inclination": 73.8099,
        "meta_ra_of_asc_node": 353.2688,
        "meta_arg_of_pericenter": 197.3533,
        "meta_mean_anomaly": 161.1513,
        "meta_ephemeris_type": 0,
        "meta_classification_type": "U",
        "meta_norad_cat_id": 35606,
        "meta_element_set_no": 999,
        "meta_rev_at_epoch": 61187,
        "meta_bstar": 0.00021068754,
        "meta_mean_motion_dot": 1.94e-06,
        "meta_mean_motion_ddot": 0,
        "tle_line1": "1 35606U 93036AMZ 25357.73615482  .00000194  00000+0  21069-3 0  9993",
        "tle_line2": "2 35606  73.8099 353.2688 0456715 197.3533 161.1513 13.41219482611878"
      },
      "geometry": {
        "type": "Point",
        "coordinates": [
          -36.53795084399318,
          -54.71908693230219
        ]
      }
    },
    {
      "type": "Feature",
      "properties": {
        "norad_id": 35611,
        "name": "COSMOS 2251 DEB",
        "group": "cosmos-2251-debris",
        "lat": 74.00852021197284,
        "lon": -119.26621885347312,
        "alt_km": 653.5175797336187,
        "timestamp": "2025-12-27T05:29:39.600780+00:00",
        "meta_object_name": "COSMOS 2251 DEB",
        "meta_object_id": "1993-036ANE",
        "meta_epoch": "2025-12-19T11:16:40.848672",
        "meta_mean_motion": 14.73020971,
        "meta_eccentricity": 0.0021353,
        "meta_inclination": 74.0189,
        "meta_ra_of_asc_node": 166.1787,
        "meta_arg_of_pericenter": 238.9125,
        "meta_mean_anomaly": 120.9952,
        "meta_ephemeris_type": 0,
        "meta_classification_type": "U",
        "meta_norad_cat_id": 35611,
        "meta_element_set_no": 999,
        "meta_rev_at_epoch": 87389,
        "meta_bstar": 0.0015718,
        "meta_mean_motion_dot": 0.0001012,
        "meta_mean_motion_ddot": 0,
        "tle_line1": "1 35611U 93036ANE 25353.46991723  .00010120  00000+0  15718-2 0  9993",
        "tle_line2": "2 35611  74.0189 166.1787 0021353 238.9125 120.9952 14.73020971873894"
      },
      "geometry": {
        "type": "Point",
        "coordinates": [
          -119.26621885347312,
          74.00852021197284
        ]
      }
    },
    {
      "type": "Feature",
      "properties": {
        "norad_id": 35614,
        "name": "COSMOS 2251 DEB",
        "group": "cosmos-2251-debris",
        "lat": -71.42909791652086,
        "lon": 178.27471838877048,
        "alt_km": 695.2628060563475,
        "timestamp": "2025-12-27T05:29:39.600790+00:00",
        "meta_object_name": "COSMOS 2251 DEB",
        "meta_object_id": "1993-036ANH",
        "meta_epoch": "2025-12-26T13:35:14.915040",
        "meta_mean_motion": 14.67128462,
        "meta_eccentricity": 0.0074944,
        "meta_inclination": 73.959,
        "meta_ra_of_asc_node": 300.6497,
        "meta_arg_of_pericenter": 151.5172,
        "meta_mean_anomaly": 209.0125,
        "meta_ephemeris_type": 0,
        "meta_classification_type": "U",
        "meta_norad_cat_id": 35614,
        "meta_element_set_no": 999,
        "meta_rev_at_epoch": 87932,
        "meta_bstar": 0.00079363,
        "meta_mean_motion_dot": 4.622e-05,
        "meta_mean_motion_ddot": 0,
        "tle_line1": "1 35614U 93036ANH 25360.56614485  .00004622  00000+0  79363-3 0  9999",
        "tle_line2": "2 35614  73.9590 300.6497 0074944 151.5172 209.0125 14.67128462879322"
      },
      "geometry": {
        "type": "Point",
        "coordinates": [
          178.27471838877048,
          -71.42909791652086
        ]
      }
    },
    {
      "type": "Feature",
      "properties": {
        "norad_id": 35645,
        "name": "COSMOS 2251 DEB",
        "group": "cosmos-2251-debris",
        "lat": -51.590824614337045,
        "lon": 39.32140081848008,
        "alt_km": 744.7565017902871,
        "timestamp": "2025-12-27T05:29:39.600800+00:00",
        "meta_object_name": "COSMOS 2251 DEB",
        "meta_object_id": "1993-036ANL",
        "meta_epoch": "2025-12-25T10:34:11.479296",
        "meta_mean_motion": 14.45753423,
        "meta_eccentricity": 0.0069637,
        "meta_inclination": 73.9639,
        "meta_ra_of_asc_node": 63.9405,
        "meta_arg_of_pericenter": 220.3088,
        "meta_mean_anomaly": 139.2896,
        "meta_ephemeris_type": 0,
        "meta_classification_type": "U",
        "meta_norad_cat_id": 35645,
        "meta_element_set_no": 999,
        "meta_rev_at_epoch": 86955,
        "meta_bstar": 0.0018908,
        "meta_mean_motion_dot": 6.883e-05,
        "meta_mean_motion_ddot": 0,
        "tle_line1": "1 35645U 93036ANL 25359.44041064  .00006883  00000+0  18908-2 0  9993",
        "tle_line2": "2 35645  73.9639  63.9405 0069637 220.3088 139.2896 14.45753423869552"
      },
      "geometry": {
        "type": "Point",
        "coordinates": [
          39.32140081848008,
          -51.590824614337045
        ]
      }
    },
    {
      "type": "Feature",
      "properties": {
        "norad_id": 35646,
        "name": "COSMOS 2251 DEB",
        "group": "cosmos-2251-debris",
        "lat": 13.575757289593993,
        "lon": -150.96841733426177,
        "alt_km": 794.898169687569,
        "timestamp": "2025-12-27T05:29:39.600810+00:00",
        "meta_object_name": "COSMOS 2251 DEB",
        "meta_object_id": "1993-036ANM",
        "meta_epoch": "2025-12-26T18:32:55.078080",
        "meta_mean_motion": 13.40837286,
        "meta_eccentricity": 0.04556604,
        "meta_inclination": 73.8713,
        "meta_ra_of_asc_node": 33.7616,
        "meta_arg_of_pericenter": 141.5666,
        "meta_mean_anomaly": 341.3849,
        "meta_ephemeris_type": 0,
        "meta_classification_type": "U",
        "meta_norad_cat_id": 35646,
        "meta_element_set_no": 999,
        "meta_rev_at_epoch": 82046,
        "meta_bstar": 0.00042220461,
        "meta_mean_motion_dot": 4.1e-06,
        "meta_mean_motion_ddot": 0,
        "tle_line1": "1 35646U 93036ANM 25360.77285970  .00000410  00000+0  42220-3 0  9993",
        "tle_line2": "2 35646  73.8713  33.7616 0455660 141.5666 341.3849 13.40837286820460"
      },
      "geometry": {
        "type": "Point",
        "coordinates": [
          -150.96841733426177,
          13.575757289593993
        ]
      }
    },
    {
      "type": "Feature",
      "properties": {
        "norad_id": 35647,
        "name": "COSMOS 2251 DEB",
        "group": "cosmos-2251-debris",
        "lat": -74.01004453005916,
        "lon": 178.80492300280287,
        "alt_km": 754.8154887651972,
        "timestamp": "2025-12-27T05:29:39.600820+00:00",
        "meta_object_name": "COSMOS 2251 DEB",
        "meta_object_id": "1993-036ANN",
        "meta_epoch": "2025-12-24T03:04:08.125248",
        "meta_mean_motion": 14.43689782,
        "meta_eccentricity": 0.00461776,
        "meta_inclination": 74.0232,
        "meta_ra_of_asc_node": 273.3799,
        "meta_arg_of_pericenter": 9.8571,
        "meta_mean_anomaly": 350.348,
        "meta_ephemeris_type": 0,
        "meta_classification_type": "U",
        "meta_norad_cat_id": 35647,
        "meta_element_set_no": 999,
        "meta_rev_at_epoch": 67828,
        "meta_bstar": 0.0007860854,
        "meta_mean_motion_dot": 2.678e-05,
        "meta_mean_motion_ddot": 0,
        "tle_line1": "1 35647U 93036ANN 25358.12787182  .00002678  00000+0  78609-3 0  9990",
        "tle_line2": "2 35647  74.0232 273.3799 0046177   9.8571 350.3480 14.43689782678286"
      },
      "geometry": {
        "type": "Point",
        "coordinates": [
          178.80492300280287,
          -74.01004453005916
        ]
      }
    },
    {
      "type": "Feature",
      "properties": {
        "norad_id": 35650,
        "name": "COSMOS 2251 DEB",
        "group": "cosmos-2251-debris",
        "lat": 13.575330719318977,
        "lon": -5.854935050316883,
        "alt_km": 607.3225748787472,
        "timestamp": "2025-12-27T05:29:39.600830+00:00",
        "meta_object_name": "COSMOS 2251 DEB",
        "meta_object_id": "1993-036ANR",
        "meta_epoch": "2025-12-24T10:09:10.296576",
        "meta_mean_motion": 14.83923288,
        "meta_eccentricity": 0.00151483,
        "meta_inclination": 74.0477,
        "meta_ra_of_asc_node": 355.7395,
        "meta_arg_of_pericenter": 38.3431,
        "meta_mean_anomaly": 112.3443,
        "meta_ephemeris_type": 0,
        "meta_classification_type": "U",
        "meta_norad_cat_id": 35650,
        "meta_element_set_no": 999,
        "meta_rev_at_epoch": 87807,
        "meta_bstar": 0.0020058306,
        "meta_mean_motion_dot": 0.00016711,
        "meta_mean_motion_ddot": 0,
        "tle_line1": "1 35650U 93036ANR 25358.42303584  .00016711  00000+0  20058-2 0  9994",
        "tle_line2": "2 35650  74.0477 355.7395 0015148  38.3431 112.3443 14.83923288878074"
      },
      "geometry": {
        "type": "Point",
        "coordinates": [
          -5.854935050316883,
          13.575330719318977
        ]
      }
    }
  ]
}